[{"OBJECT_NAME":"STARLINK-30274","OBJECT_ID":"2023-124K","EPOCH":"2026-03-09T16:05:44.166912","MEAN_MOTION":15.30190934,"ECCENTRICITY":9.576e-5,"INCLINATION":53.1597,"RA_OF_ASC_NODE":207.0386,"ARG_OF_PERICENTER":90.1599,"MEAN_ANOMALY":269.9511,"EPHEMERIS_TYPE":0,"CLASSIFICATION_TYPE":"U","NORAD_CAT_ID":57672,"ELEMENT_SET_NO":999,"REV_AT_EPOCH":14356,"BSTAR":2.8124994e-5,"MEAN_MOTION_DOT":4.74e-6,"MEAN_MOTION_DDOT":0},{"OBJECT_NAME":"LYNK TOWER 5","OBJECT_ID":"2024-043Z","EPOCH":"2026-03-09T22:11:51.175104","MEAN_MOTION":15.29454506,"ECCENTRICITY":0.00104056,"INCLINATION":97.5458,"RA_OF_ASC_NODE":204.7305,"ARG_OF_PERICENTER":234.6422,"MEAN_ANOMALY":125.3846,"EPHEMERIS_TYPE":0,"CLASSIFICATION_TYPE":"U","NORAD_CAT_ID":59121,"ELEMENT_SET_NO":999,"REV_AT_EPOCH":11186,"BSTAR":0.00031901545,"MEAN_MOTION_DOT":9.048e-5,"MEAN_MOTION_DDOT":0}]
